INTELSAT 902 (IS-902)   
1 26900U 01039A   26181.50527403 -.00000277  00000+0  00000+0 0  9999
2 26900   6.1497  71.6208 0004210  28.0626 310.6671  1.00270084 90826
INTELSAT 904 (IS-904)   
1 27380U 02007A   26181.50882737 -.00000220  00000+0  00000+0 0  9990
2 27380   6.9515  69.0258 0006411  14.1461 347.1033  1.00272128 51906
DIRECTV 5 (TEMPO 1)     
1 27426U 02023A   26181.70731242 -.00000050  00000+0  00000+0 0  9996
2 27426   4.9105  75.1460 0003559  31.4863 316.6665  1.00271758 88259
INTELSAT 905 (IS-905)   
1 27438U 02027A   26181.77324398  .00000099  00000+0  00000+0 0  9992
2 27438   6.7857  69.6375 0004048  31.2679 319.0932  1.00271993 51497
GALAXY 3C (G-3C)        
1 27445U 02030A   26181.59529704 -.00000145  00000+0  00000+0 0  9995
2 27445   3.7656  77.8074 0001970  27.2183 293.1133  1.00272227 46627
INTELSAT 906 (IS-906)   
1 27513U 02041A   26181.81302443  .00000019  00000+0  00000+0 0  9996
2 27513   5.8362  72.7538 0004119  11.2519 191.7076  1.00272975 87166
GALAXY 13 (HORIZONS-1)  
1 27954U 03044A   26181.69933905  .00000142  00000+0  00000+0 0  9995
2 27954   1.4534  83.6929 0001687  10.3255 286.4785  1.00271423 46708
INTELSAT 10-02          
1 28358U 04022A   26181.72892282  .00000000  00000+0  00000+0 0  9990
2 28358   0.0364 271.1125 0000202 274.8601 354.2339  1.00274283 80691
DIRECTV 8               
1 28659U 05019A   26181.60496459  .00000012  00000+0  00000+0 0  9997
2 28659   0.0176 337.8440 0003356 127.6381 271.9265  1.00272164 77201
GALAXY 28 (G-28)        
1 28702U 05022A   26181.79503918 -.00000192  00000+0  00000+0 0  9999
2 28702   3.3321  78.7720 0002607  13.3341  85.8695  1.00271766 52114
GALAXY 16 (G-16)        
1 29236U 06023A   26181.59677560 -.00000116  00000+0  00000+0 0  9993
2 29236   0.0088  67.2795 0002759  26.4720 300.7511  1.00273181 73101
DIRECTV 9S              
1 29494U 06043A   26181.59810104 -.00000105  00000+0  00000+0 0  9992
2 29494   2.4537  80.7520 0005435  21.9726 290.0559  1.00271808 51516
GALAXY 17 (G-17)        
1 31307U 07016B   26181.78355736 -.00000198  00000+0  00000+0 0  9997
2 31307   3.0045  79.7377 0004048  18.2690  17.9112  1.00271377 69947
INTELSAT 11 (IS-11)     
1 32253U 07044B   26181.81337110  .00000089  00000+0  00000+0 0  9997
2 32253   3.5991  78.5117 0003353  86.9540 112.0879  0.99047743 68587
HORIZONS-2              
1 32388U 07063B   26181.78572404 -.00000245  00000+0  00000+0 0  9995
2 32388   2.6354  80.4682 0004110  10.8630  36.5603  1.00269972 67954
DIRECTV 11              
1 32729U 08013A   26181.59747535 -.00000115  00000+0  00000+0 0  9994
2 32729   0.0118 261.6721 0000347 164.8959 328.0030  1.00269308 45729
GALAXY 18 (G-18)        
1 32951U 08024A   26181.70471241  .00000036  00000+0  00000+0 0  9995
2 32951   0.0183  32.3577 0003215  70.8651 306.2398  1.00271806 45981
GALAXY 19 (G-19)        
1 33376U 08045A   26181.63860453 -.00000128  00000+0  00000+0 0  9992
2 33376   0.0539 254.4361 0002933 218.1887 298.9734  1.00271883 65034
FM-5                    
1 35493U 09034A   26181.14171064 -.00000189  00000+0  00000+0 0  9999
2 35493   0.0344 280.3187 0001040  70.2395 252.5130  1.00272155 46772
INTELSAT 14 (IS-14)     
1 36097U 09064A   26181.79148583 -.00000263  00000+0  00000+0 0  9997
2 36097   0.0266 290.1951 0002736 171.9097  56.6835  1.00270248 60744
INTELSAT 15 (IS-15)     
1 36106U 09067A   26181.88508867 -.00000174  00000+0  00000+0 0  9997
2 36106   0.0132 316.1908 0002684 147.1806 219.3368  1.00268958 41364
DIRECTV 12              
1 36131U 09075A   26181.59817875 -.00000093  00000+0  00000+0 0  9994
2 36131   0.0173 192.7565 0000490 284.2288 274.3004  1.00273225 46685
INTELSAT 16 (IS-16)     
1 36397U 10006A   26181.99162499 -.00000234  00000+0  00000+0 0  9990
2 36397   0.0112  25.9966 0002556  92.6140  81.2211  1.00270552 59798
XM-5                    
1 37185U 10053A   26181.10392142 -.00000012  00000+0  00000+0 0  9995
2 37185   0.0699 268.8148 0002500 286.8802   4.7004  1.00272097 57610
INTELSAT 17 (IS-17)     
1 37238U 10065B   26181.93725451  .00000009  00000+0  00000+0 0  9996
2 37238   0.0038 111.0019 0002676   2.7940 208.6047  1.00270305 53386
INTELSAT 28 (IS-28)     
1 37392U 11016A   26181.79408584 -.00000216  00000+0  00000+0 0  9994
2 37392   1.8397  82.4677 0004021  16.8922  73.6250  1.00270484 53426
INTELSAT 18 (IS-18)     
1 37834U 11056A   26181.76475061  .00000000  00000+0  00000+0 0  9990
2 37834   0.0231  22.8266 0002100  83.3379 267.9762  1.00269536 53947
INTELSAT 22 (IS-22)     
1 38098U 12011A   26181.93711562  .00000000  00000+0  00000+0 0  9993
2 38098   0.0483  66.4062 0001758  43.4919 218.5634  1.00271335  7323
INTELSAT 19 (IS-19)     
1 38356U 12030A   26181.76197727 -.00000046  00000+0  00000+0 0  9994
2 38356   0.0120   7.2299 0003430 102.5357 249.3719  1.00271515 50587
INTELSAT 20 (IS-20)     
1 38740U 12043A   26181.93725451  .00000000  00000+0  00000+0 0  9994
2 38740   0.0436  75.9415 0002201 109.6201 139.3398  1.00270880 50885
INTELSAT 21 (IS-21)     
1 38749U 12045A   26181.78888582 -.00000274  00000+0  00000+0 0  9997
2 38749   0.0327 278.3166 0001985 188.2177  38.3107  1.00272242 50664
